STARLINK-37079          
1 68186U 26050V   26090.61183913  .00339251  00000+0  16485-2 0  9999
2 68186  53.1592 171.8098 0001108  59.0061 301.1070 15.80967095  3949
STARLINK-37006          
1 68187U 26050W   26090.67430682  .00325098  00000+0  15819-2 0  9998
2 68187  53.1593 171.4878 0001383 112.3332 247.7837 15.80976539  3952
STARLINK-36340          
1 68188U 26050X   26090.61034198  .00323652  00000+0  15770-2 0  9995
2 68188  53.1592 171.7993 0001360  78.0743 282.0433 15.80949799  3842
STARLINK-36305          
1 68189U 26050Y   26090.60959191  .00237669  00000+0  11724-2 0  9991
2 68189  53.1592 171.7944 0001296  83.4585 276.6585 15.80918124  3846
STARLINK-37071          
1 68190U 26050Z   26090.60809000  .00343500  00000+0  16690-2 0  9995
2 68190  53.1592 171.7842 0001335 105.9755 254.1415 15.80958192  3941
STARLINK-37091          
1 68191U 26050AA  26090.54412072  .00335697  00000+0  16336-2 0  9993
2 68191  53.1592 172.0959 0001287  45.8698 314.2431 15.80945761  3932
STARLINK-37098          
1 68192U 26050AB  26090.60658847  .00212464  00000+0  10516-2 0  9993
2 68192  53.1592 171.7735 0001307  73.7851 286.3315 15.80915486  3947
STARLINK-37090          
1 68193U 26050AC  26090.60508876  .00339526  00000+0  16500-2 0  9998
2 68193  53.1592 171.7635 0001493  53.8759 306.2401 15.80964617  3947
STARLINK-37093          
1 68194U 26050AD  26090.60884012  .00342469  00000+0  16640-2 0  9993
2 68194  53.1593 171.7892 0001524  55.3286 304.7880 15.80961114  3944
STARLINK-37058          
1 68195U 26050AE  26090.60583469  .00124965  00000+0  62752-3 0  9991
2 68195  53.1592 171.7685 0001704  83.8394 276.2823 15.80873669  2384
YAOGAN-50 02            
1 68196U 26051A   26090.81759666  .00000269  00000+0  74249-4 0  9995
2 68196 141.9860 313.9535 0000753 278.7946  81.2689 13.83260598  2278
CZ-6A R/B               
1 68197U 26051B   26090.51956593  .00001251  00000+0  16715-3 0  9996
2 68197 142.0315 321.1552 0186941 208.1806 150.8691 14.56376395  2340
