CCSDS_OMM_VERS = 2.0
CREATION_DATE  = 
ORIGINATOR     = 

OBJECT_NAME    = STARLINK-37079
OBJECT_ID      = 2026-050V
CENTER_NAME    = EARTH
REF_FRAME      = TEME
TIME_SYSTEM    = UTC
MEAN_ELEMENT_THEORY = SGP/SGP4

EPOCH          = 2026-03-31T14:41:02.900832
MEAN_MOTION    = 15.80967095
ECCENTRICITY   = .0001108
INCLINATION    = 53.1592
RA_OF_ASC_NODE = 171.8098
ARG_OF_PERICENTER = 59.0061
MEAN_ANOMALY   = 301.1070

EPHEMERIS_TYPE = 0
CLASSIFICATION_TYPE = U
NORAD_CAT_ID   = 68186
ELEMENT_SET_NO = 999
REV_AT_EPOCH   = 394
BSTAR          = .16485E-2
MEAN_MOTION_DOT = .339251E-2
MEAN_MOTION_DDOT = 0

CCSDS_OMM_VERS = 2.0
CREATION_DATE  = 
ORIGINATOR     = 

OBJECT_NAME    = STARLINK-37006
OBJECT_ID      = 2026-050W
CENTER_NAME    = EARTH
REF_FRAME      = TEME
TIME_SYSTEM    = UTC
MEAN_ELEMENT_THEORY = SGP/SGP4

EPOCH          = 2026-03-31T16:11:00.109248
MEAN_MOTION    = 15.80976539
ECCENTRICITY   = .0001383
INCLINATION    = 53.1593
RA_OF_ASC_NODE = 171.4878
ARG_OF_PERICENTER = 112.3332
MEAN_ANOMALY   = 247.7837

EPHEMERIS_TYPE = 0
CLASSIFICATION_TYPE = U
NORAD_CAT_ID   = 68187
ELEMENT_SET_NO = 999
REV_AT_EPOCH   = 395
BSTAR          = .15819E-2
MEAN_MOTION_DOT = .325098E-2
MEAN_MOTION_DDOT = 0

CCSDS_OMM_VERS = 2.0
CREATION_DATE  = 
ORIGINATOR     = 

OBJECT_NAME    = STARLINK-36340
OBJECT_ID      = 2026-050X
CENTER_NAME    = EARTH
REF_FRAME      = TEME
TIME_SYSTEM    = UTC
MEAN_ELEMENT_THEORY = SGP/SGP4

EPOCH          = 2026-03-31T14:38:53.547072
MEAN_MOTION    = 15.80949799
ECCENTRICITY   = .000136
INCLINATION    = 53.1592
RA_OF_ASC_NODE = 171.7993
ARG_OF_PERICENTER = 78.0743
MEAN_ANOMALY   = 282.0433

EPHEMERIS_TYPE = 0
CLASSIFICATION_TYPE = U
NORAD_CAT_ID   = 68188
ELEMENT_SET_NO = 999
REV_AT_EPOCH   = 384
BSTAR          = .1577E-2
MEAN_MOTION_DOT = .323652E-2
MEAN_MOTION_DDOT = 0

CCSDS_OMM_VERS = 2.0
CREATION_DATE  = 
ORIGINATOR     = 

OBJECT_NAME    = STARLINK-36305
OBJECT_ID      = 2026-050Y
CENTER_NAME    = EARTH
REF_FRAME      = TEME
TIME_SYSTEM    = UTC
MEAN_ELEMENT_THEORY = SGP/SGP4

EPOCH          = 2026-03-31T14:37:48.741024
MEAN_MOTION    = 15.80918124
ECCENTRICITY   = .0001296
INCLINATION    = 53.1592
RA_OF_ASC_NODE = 171.7944
ARG_OF_PERICENTER = 83.4585
MEAN_ANOMALY   = 276.6585

EPHEMERIS_TYPE = 0
CLASSIFICATION_TYPE = U
NORAD_CAT_ID   = 68189
ELEMENT_SET_NO = 999
REV_AT_EPOCH   = 384
BSTAR          = .11724E-2
MEAN_MOTION_DOT = .237669E-2
MEAN_MOTION_DDOT = 0

CCSDS_OMM_VERS = 2.0
CREATION_DATE  = 
ORIGINATOR     = 

OBJECT_NAME    = STARLINK-37071
OBJECT_ID      = 2026-050Z
CENTER_NAME    = EARTH
REF_FRAME      = TEME
TIME_SYSTEM    = UTC
MEAN_ELEMENT_THEORY = SGP/SGP4

EPOCH          = 2026-03-31T14:35:38.976000
MEAN_MOTION    = 15.80958192
ECCENTRICITY   = .0001335
INCLINATION    = 53.1592
RA_OF_ASC_NODE = 171.7842
ARG_OF_PERICENTER = 105.9755
MEAN_ANOMALY   = 254.1415

EPHEMERIS_TYPE = 0
CLASSIFICATION_TYPE = U
NORAD_CAT_ID   = 68190
ELEMENT_SET_NO = 999
REV_AT_EPOCH   = 394
BSTAR          = .1669E-2
MEAN_MOTION_DOT = .3435E-2
MEAN_MOTION_DDOT = 0

CCSDS_OMM_VERS = 2.0
CREATION_DATE  = 
ORIGINATOR     = 

OBJECT_NAME    = STARLINK-37091
OBJECT_ID      = 2026-050AA
CENTER_NAME    = EARTH
REF_FRAME      = TEME
TIME_SYSTEM    = UTC
MEAN_ELEMENT_THEORY = SGP/SGP4

EPOCH          = 2026-03-31T13:03:32.030208
MEAN_MOTION    = 15.80945761
ECCENTRICITY   = .0001287
INCLINATION    = 53.1592
RA_OF_ASC_NODE = 172.0959
ARG_OF_PERICENTER = 45.8698
MEAN_ANOMALY   = 314.2431

EPHEMERIS_TYPE = 0
CLASSIFICATION_TYPE = U
NORAD_CAT_ID   = 68191
ELEMENT_SET_NO = 999
REV_AT_EPOCH   = 393
BSTAR          = .16336E-2
MEAN_MOTION_DOT = .335697E-2
MEAN_MOTION_DDOT = 0

CCSDS_OMM_VERS = 2.0
CREATION_DATE  = 
ORIGINATOR     = 

OBJECT_NAME    = STARLINK-37098
OBJECT_ID      = 2026-050AB
CENTER_NAME    = EARTH
REF_FRAME      = TEME
TIME_SYSTEM    = UTC
MEAN_ELEMENT_THEORY = SGP/SGP4

EPOCH          = 2026-03-31T14:33:29.243808
MEAN_MOTION    = 15.80915486
ECCENTRICITY   = .0001307
INCLINATION    = 53.1592
RA_OF_ASC_NODE = 171.7735
ARG_OF_PERICENTER = 73.7851
MEAN_ANOMALY   = 286.3315

EPHEMERIS_TYPE = 0
CLASSIFICATION_TYPE = U
NORAD_CAT_ID   = 68192
ELEMENT_SET_NO = 999
REV_AT_EPOCH   = 394
BSTAR          = .10516E-2
MEAN_MOTION_DOT = .212464E-2
MEAN_MOTION_DDOT = 0

CCSDS_OMM_VERS = 2.0
CREATION_DATE  = 
ORIGINATOR     = 

OBJECT_NAME    = STARLINK-37090
OBJECT_ID      = 2026-050AC
CENTER_NAME    = EARTH
REF_FRAME      = TEME
TIME_SYSTEM    = UTC
MEAN_ELEMENT_THEORY = SGP/SGP4

EPOCH          = 2026-03-31T14:31:19.668864
MEAN_MOTION    = 15.80964617
ECCENTRICITY   = .0001493
INCLINATION    = 53.1592
RA_OF_ASC_NODE = 171.7635
ARG_OF_PERICENTER = 53.8759
MEAN_ANOMALY   = 306.2401

EPHEMERIS_TYPE = 0
CLASSIFICATION_TYPE = U
NORAD_CAT_ID   = 68193
ELEMENT_SET_NO = 999
REV_AT_EPOCH   = 394
BSTAR          = .165E-2
MEAN_MOTION_DOT = .339526E-2
MEAN_MOTION_DDOT = 0

CCSDS_OMM_VERS = 2.0
CREATION_DATE  = 
ORIGINATOR     = 

OBJECT_NAME    = STARLINK-37093
OBJECT_ID      = 2026-050AD
CENTER_NAME    = EARTH
REF_FRAME      = TEME
TIME_SYSTEM    = UTC
MEAN_ELEMENT_THEORY = SGP/SGP4

EPOCH          = 2026-03-31T14:36:43.786368
MEAN_MOTION    = 15.80961114
ECCENTRICITY   = .0001524
INCLINATION    = 53.1593
RA_OF_ASC_NODE = 171.7892
ARG_OF_PERICENTER = 55.3286
MEAN_ANOMALY   = 304.7880

EPHEMERIS_TYPE = 0
CLASSIFICATION_TYPE = U
NORAD_CAT_ID   = 68194
ELEMENT_SET_NO = 999
REV_AT_EPOCH   = 394
BSTAR          = .1664E-2
MEAN_MOTION_DOT = .342469E-2
MEAN_MOTION_DDOT = 0

CCSDS_OMM_VERS = 2.0
CREATION_DATE  = 
ORIGINATOR     = 

OBJECT_NAME    = STARLINK-37058
OBJECT_ID      = 2026-050AE
CENTER_NAME    = EARTH
REF_FRAME      = TEME
TIME_SYSTEM    = UTC
MEAN_ELEMENT_THEORY = SGP/SGP4

EPOCH          = 2026-03-31T14:32:24.117216
MEAN_MOTION    = 15.80873669
ECCENTRICITY   = .0001704
INCLINATION    = 53.1592
RA_OF_ASC_NODE = 171.7685
ARG_OF_PERICENTER = 83.8394
MEAN_ANOMALY   = 276.2823

EPHEMERIS_TYPE = 0
CLASSIFICATION_TYPE = U
NORAD_CAT_ID   = 68195
ELEMENT_SET_NO = 999
REV_AT_EPOCH   = 238
BSTAR          = .62752E-3
MEAN_MOTION_DOT = .124965E-2
MEAN_MOTION_DDOT = 0

CCSDS_OMM_VERS = 2.0
CREATION_DATE  = 
ORIGINATOR     = 

OBJECT_NAME    = YAOGAN-50 02
OBJECT_ID      = 2026-051A
CENTER_NAME    = EARTH
REF_FRAME      = TEME
TIME_SYSTEM    = UTC
MEAN_ELEMENT_THEORY = SGP/SGP4

EPOCH          = 2026-03-31T19:37:20.351424
MEAN_MOTION    = 13.83260598
ECCENTRICITY   = .0000753
INCLINATION    = 141.9860
RA_OF_ASC_NODE = 313.9535
ARG_OF_PERICENTER = 278.7946
MEAN_ANOMALY   = 81.2689

EPHEMERIS_TYPE = 0
CLASSIFICATION_TYPE = U
NORAD_CAT_ID   = 68196
ELEMENT_SET_NO = 999
REV_AT_EPOCH   = 227
BSTAR          = .74249E-4
MEAN_MOTION_DOT = .269E-5
MEAN_MOTION_DDOT = 0

CCSDS_OMM_VERS = 2.0
CREATION_DATE  = 
ORIGINATOR     = 

OBJECT_NAME    = CZ-6A R/B
OBJECT_ID      = 2026-051B
CENTER_NAME    = EARTH
REF_FRAME      = TEME
TIME_SYSTEM    = UTC
MEAN_ELEMENT_THEORY = SGP/SGP4

EPOCH          = 2026-03-31T12:28:10.496352
MEAN_MOTION    = 14.56376395
ECCENTRICITY   = .01869411
INCLINATION    = 142.0315
RA_OF_ASC_NODE = 321.1552
ARG_OF_PERICENTER = 208.1806
MEAN_ANOMALY   = 150.8691

EPHEMERIS_TYPE = 0
CLASSIFICATION_TYPE = U
NORAD_CAT_ID   = 68197
ELEMENT_SET_NO = 999
REV_AT_EPOCH   = 234
BSTAR          = .16714528E-3
MEAN_MOTION_DOT = .1251E-4
MEAN_MOTION_DDOT = 0

